{
  "type": "FeatureCollection",
  "features": [
    {
      "type": "Feature",
      "properties": {
        "norad_id": 41011,
        "name": "FENGYUN 1C DEB",
        "group": "fengyun-1c-debris",
        "lat": -52.7089065410612,
        "lon": -168.93894554076064,
        "alt_km": 941.3518684859982,
        "timestamp": "2025-12-04T21:36:16.163067+00:00",
        "meta_object_name": "FENGYUN 1C DEB",
        "meta_object_id": "1999-025EXR",
        "meta_epoch": "2025-12-04T08:52:18.346656",
        "meta_mean_motion": 14.42818193,
        "meta_eccentricity": 0.03107763,
        "meta_inclination": 99.1701,
        "meta_ra_of_asc_node": 22.7359,
        "meta_arg_of_pericenter": 22.8881,
        "meta_mean_anomaly": 338.5819,
        "meta_ephemeris_type": 0,
        "meta_classification_type": "U",
        "meta_norad_cat_id": 41011,
        "meta_element_set_no": 999,
        "meta_rev_at_epoch": 57036,
        "meta_bstar": 0.0011197251,
        "meta_mean_motion_dot": 6.661e-05,
        "meta_mean_motion_ddot": 0,
        "tle_line1": "1 41011U 99025EXR 25338.36965679  .00006661  00000+0  11197-2 0  9993",
        "tle_line2": "2 41011  99.1701  22.7359 0310776  22.8881 338.5819 14.42818193570366"
      },
      "geometry": {
        "type": "Point",
        "coordinates": [
          -168.93894554076064,
          -52.7089065410612
        ]
      }
    },
    {
      "type": "Feature",
      "properties": {
        "norad_id": 41018,
        "name": "FENGYUN 1C DEB",
        "group": "fengyun-1c-debris",
        "lat": -55.05942212496066,
        "lon": 88.72930924333133,
        "alt_km": 1093.0762642792042,
        "timestamp": "2025-12-04T21:36:16.163077+00:00",
        "meta_object_name": "FENGYUN 1C DEB",
        "meta_object_id": "1999-025EXY",
        "meta_epoch": "2025-11-14T13:55:42.109536",
        "meta_mean_motion": 13.52269451,
        "meta_eccentricity": 0.03030631,
        "meta_inclination": 99.9325,
        "meta_ra_of_asc_node": 262.8906,
        "meta_arg_of_pericenter": 189.0805,
        "meta_mean_anomaly": 170.4772,
        "meta_ephemeris_type": 0,
        "meta_classification_type": "U",
        "meta_norad_cat_id": 41018,
        "meta_element_set_no": 999,
        "meta_rev_at_epoch": 87794,
        "meta_bstar": 0.0023936359,
        "meta_mean_motion_dot": 2.062e-05,
        "meta_mean_motion_ddot": 0,
        "tle_line1": "1 41018U 99025EXY 25318.58034849  .00002062  00000+0  23936-2 0  9993",
        "tle_line2": "2 41018  99.9325 262.8906 0303063 189.0805 170.4772 13.52269451877943"
      },
      "geometry": {
        "type": "Point",
        "coordinates": [
          88.72930924333133,
          -55.05942212496066
        ]
      }
    },
    {
      "type": "Feature",
      "properties": {
        "norad_id": 41822,
        "name": "FENGYUN 1C DEB",
        "group": "fengyun-1c-debris",
        "lat": 31.906745633363144,
        "lon": 39.66046167508867,
        "alt_km": 841.4977427958374,
        "timestamp": "2025-12-04T21:36:16.163087+00:00",
        "meta_object_name": "FENGYUN 1C DEB",
        "meta_object_id": "1999-025EXZ",
        "meta_epoch": "2025-12-03T03:18:49.388832",
        "meta_mean_motion": 14.24679698,
        "meta_eccentricity": 0.00547838,
        "meta_inclination": 98.7332,
        "meta_ra_of_asc_node": 43.4001,
        "meta_arg_of_pericenter": 248.0214,
        "meta_mean_anomaly": 111.5138,
        "meta_ephemeris_type": 0,
        "meta_classification_type": "U",
        "meta_norad_cat_id": 41822,
        "meta_element_set_no": 999,
        "meta_rev_at_epoch": 47236,
        "meta_bstar": 0.0021587019,
        "meta_mean_motion_dot": 5.059e-05,
        "meta_mean_motion_ddot": 0,
        "tle_line1": "1 41822U 99025EXZ 25337.13807163  .00005059  00000+0  21587-2 0  9994",
        "tle_line2": "2 41822  98.7332  43.4001 0054783 248.0214 111.5138 14.24679698472369"
      },
      "geometry": {
        "type": "Point",
        "coordinates": [
          39.66046167508867,
          31.906745633363144
        ]
      }
    },
    {
      "type": "Feature",
      "properties": {
        "norad_id": 41823,
        "name": "FENGYUN 1C DEB",
        "group": "fengyun-1c-debris",
        "lat": 40.790644609376855,
        "lon": -130.09282214461203,
        "alt_km": 825.1329392912749,
        "timestamp": "2025-12-04T21:36:16.163099+00:00",
        "meta_object_name": "FENGYUN 1C DEB",
        "meta_object_id": "1999-025EYA",
        "meta_epoch": "2025-12-03T02:46:27.926400",
        "meta_mean_motion": 14.23411276,
        "meta_eccentricity": 0.00541675,
        "meta_inclination": 98.7219,
        "meta_ra_of_asc_node": 40.5267,
        "meta_arg_of_pericenter": 256.0412,
        "meta_mean_anomaly": 103.4739,
        "meta_ephemeris_type": 0,
        "meta_classification_type": "U",
        "meta_norad_cat_id": 41823,
        "meta_element_set_no": 999,
        "meta_rev_at_epoch": 47221,
        "meta_bstar": 0.0020086619,
        "meta_mean_motion_dot": 4.587e-05,
        "meta_mean_motion_ddot": 0,
        "tle_line1": "1 41823U 99025EYA 25337.11560100  .00004587  00000+0  20087-2 0  9999",
        "tle_line2": "2 41823  98.7219  40.5267 0054167 256.0412 103.4739 14.23411276472217"
      },
      "geometry": {
        "type": "Point",
        "coordinates": [
          -130.09282214461203,
          40.790644609376855
        ]
      }
    },
    {
      "type": "Feature",
      "properties": {
        "norad_id": 41824,
        "name": "FENGYUN 1C DEB",
        "group": "fengyun-1c-debris",
        "lat": -13.199964019100046,
        "lon": 45.0447744804878,
        "alt_km": 820.9043086025958,
        "timestamp": "2025-12-04T21:36:16.163109+00:00",
        "meta_object_name": "FENGYUN 1C DEB",
        "meta_object_id": "1999-025EYB",
        "meta_epoch": "2025-12-03T03:30:36.467424",
        "meta_mean_motion": 14.24047096,
        "meta_eccentricity": 0.00564381,
        "meta_inclination": 98.7333,
        "meta_ra_of_asc_node": 41.2364,
        "meta_arg_of_pericenter": 254.7318,
        "meta_mean_anomaly": 104.7617,
        "meta_ephemeris_type": 0,
        "meta_classification_type": "U",
        "meta_norad_cat_id": 41824,
        "meta_element_set_no": 999,
        "meta_rev_at_epoch": 47223,
        "meta_bstar": 0.0020826395,
        "meta_mean_motion_dot": 4.823e-05,
        "meta_mean_motion_ddot": 0,
        "tle_line1": "1 41824U 99025EYB 25337.14625541  .00004823  00000+0  20826-2 0  9998",
        "tle_line2": "2 41824  98.7333  41.2364 0056438 254.7318 104.7617 14.24047096472231"
      },
      "geometry": {
        "type": "Point",
        "coordinates": [
          45.0447744804878,
          -13.199964019100046
        ]
      }
    },
    {
      "type": "Feature",
      "properties": {
        "norad_id": 41825,
        "name": "FENGYUN 1C DEB",
        "group": "fengyun-1c-debris",
        "lat": -2.813789431525594,
        "lon": -132.47697269788412,
        "alt_km": 791.8683901107051,
        "timestamp": "2025-12-04T21:36:16.163119+00:00",
        "meta_object_name": "FENGYUN 1C DEB",
        "meta_object_id": "1999-025EYC",
        "meta_epoch": "2025-12-03T04:18:00.149760",
        "meta_mean_motion": 14.24970955,
        "meta_eccentricity": 0.00543125,
        "meta_inclination": 98.7429,
        "meta_ra_of_asc_node": 46.2424,
        "meta_arg_of_pericenter": 247.2858,
        "meta_mean_anomaly": 112.2575,
        "meta_ephemeris_type": 0,
        "meta_classification_type": "U",
        "meta_norad_cat_id": 41825,
        "meta_element_set_no": 999,
        "meta_rev_at_epoch": 47212,
        "meta_bstar": 0.0026848225,
        "meta_mean_motion_dot": 6.338e-05,
        "meta_mean_motion_ddot": 0,
        "tle_line1": "1 41825U 99025EYC 25337.17916840  .00006338  00000+0  26848-2 0  9990",
        "tle_line2": "2 41825  98.7429  46.2424 0054312 247.2858 112.2575 14.24970955472129"
      },
      "geometry": {
        "type": "Point",
        "coordinates": [
          -132.47697269788412,
          -2.813789431525594
        ]
      }
    },
    {
      "type": "Feature",
      "properties": {
        "norad_id": 41826,
        "name": "FENGYUN 1C DEB",
        "group": "fengyun-1c-debris",
        "lat": -12.241322212499329,
        "lon": -137.1615889637219,
        "alt_km": 793.7129545416356,
        "timestamp": "2025-12-04T21:36:16.163129+00:00",
        "meta_object_name": "FENGYUN 1C DEB",
        "meta_object_id": "1999-025EYD",
        "meta_epoch": "2025-12-04T15:38:19.863456",
        "meta_mean_motion": 14.23663434,
        "meta_eccentricity": 0.00551656,
        "meta_inclination": 98.7346,
        "meta_ra_of_asc_node": 44.5031,
        "meta_arg_of_pericenter": 246.686,
        "meta_mean_anomaly": 112.8507,
        "meta_ephemeris_type": 0,
        "meta_classification_type": "U",
        "meta_norad_cat_id": 41826,
        "meta_element_set_no": 999,
        "meta_rev_at_epoch": 47245,
        "meta_bstar": 0.0031602457,
        "meta_mean_motion_dot": 7.285e-05,
        "meta_mean_motion_ddot": 0,
        "tle_line1": "1 41826U 99025EYD 25338.65161879  .00007285  00000+0  31602-2 0  9995",
        "tle_line2": "2 41826  98.7346  44.5031 0055165 246.6860 112.8507 14.23663434472453"
      },
      "geometry": {
        "type": "Point",
        "coordinates": [
          -137.1615889637219,
          -12.241322212499329
        ]
      }
    }
  ]
}